RISAT-1                 
1 38248U 12017A   19253.47285955  .00000099  00000-0  10029-4 0  9995
2 38248  97.5710 261.1242 0005618 118.4532 241.7263 15.09874733406235
ARIRANG-3 (KOMPSAT-3)   
1 38338U 12025B   19253.43770136  .00000031  00000-0  15693-4 0  9998
2 38338  98.1637 190.2446 0009110 305.9303  54.1041 14.61768278390277
KANOPUS-V 1             
1 38707U 12039A   19253.42986167  .00000267  00000-0  15965-4 0  9998
2 38707  97.4522 170.9277 0001763  81.6288  22.2157 15.19027699395846
EXACTVIEW-1 (ADS-1B)    
1 38709U 12039C   19253.48650550 -.00000030  00000-0  75295-5 0  9992
2 38709  99.1376 271.1565 0012328  77.8148 282.4408 14.23998345370862
SPOT 6                  
1 38755U 12047A   19253.41514726 -.00000052  00000-0 -13168-5 0  9995
2 38755  98.2042 319.4782 0001177  74.5564 285.5769 14.58547105372774
PLEIADES 1B             
1 39019U 12068A   19253.43303745 -.00000033  00000-0  26524-5 0  9999
2 39019  98.1927 326.9709 0001144  82.6081 277.5249 14.58557553360554
GOKTURK 2               
1 39030U 12073A   19252.89442109 -.00000104  00000-0 -86176-5 0  9994
2 39030  97.9803 141.0277 0001295  37.5108 322.5459 14.72714233360469
LANDSAT 8               
1 39084U 13008A   19253.47181351 -.00000405  00000-0 -79852-4 0  9992
2 39084  98.2185 322.3648 0001178  71.4708 288.6611 14.57103212349780
SARAL                   
1 39086U 13009A   19253.50356276 -.00000004  00000-0  14623-4 0  9998
2 39086  98.5427  78.3904 0001556  51.7187 308.4137 14.32010481341794
GAOFEN 1                
1 39150U 13018A   19253.49684385  .00000011  00000-0  88250-5 0  9998
2 39150  97.8954 332.0273 0017937 308.3658  51.5938 14.76539385343554
VNREDSAT 1              
1 39160U 13021B   19253.40870189  .00000038  00000-0  16690-4 0  9990
2 39160  98.1775 328.0553 0001250  74.3736 285.7602 14.62921995338790
ARIRANG-5 (KOMPSAT-5)   
1 39227U 13042A   19253.45636172  .00000362  00000-0  30172-4 0  9995
2 39227  97.6216  76.4603 0001160 100.8604 320.2213 15.04512568332276
YAOGAN 18               
1 39363U 13059A   19253.45388071  .00000391  00000-0  22270-4 0  9998
2 39363  97.2905 307.7342 0001116 129.6576 325.5750 15.18209050325007
SKYSAT-1                
1 39418U 13066C   19253.43254826  .00000369  00000-0  35271-4 0  9995
2 39418  97.6469 333.7135 0022623  68.8430 291.5207 14.98852096317185
DUBAISAT-2              
1 39419U 13066D   19250.75696396 -.00000055  00000-0  43359-7 0  9992
2 39419  97.5849 310.3404 0015340  75.6865 284.6023 14.94021969315813
GPM-CORE                
1 39574U 14009C   19253.15729379  .00002259  00000-0  37075-4 0  9999
2 39574  65.0077  28.3455 0011717 288.4823  71.5049 15.55568569314294
SENTINEL-1A             
1 39634U 14016A   19253.50463917 -.00000026  00000-0  41587-5 0  9991
2 39634  98.1822 259.5107 0001248  78.1053 282.0289 14.59197959289598
KAZEOSAT 1              
1 39731U 14024A   19253.44073217 -.00000016  00000-0  82240-5 0  9991
2 39731  98.3491 328.1473 0001279  91.4791 268.6545 14.42047497282388
ALOS-2                  
1 39766U 14029A   19253.42899758 -.00000125  00000-0 -98090-5 0  9990
2 39766  97.9225 349.0575 0001449  90.7189 269.4193 14.79469864286145
KAZEOSAT 2              
1 40010U 14033A   19253.49206855  .00000020  00000-0  90691-5 0  9997
2 40010  97.8280 150.8860 0017048 136.1662 224.0900 14.82071250282700
HODOYOSHI-4             
1 40011U 14033B   19253.43240755  .00000037  00000-0  11411-4 0  9999
2 40011  97.8050 144.4438 0027558 135.5035 224.8383 14.81123654282427
DEIMOS-2                
1 40013U 14033D   19253.44465977  .00000102  00000-0  18352-4 0  9991
2 40013  97.8317 156.0977 0001454 124.5270 235.6079 14.84560078283171
HODOYOSHI-3             
1 40015U 14033F   19253.54533108  .00000050  00000-0  13702-4 0  9992
2 40015  97.7742 134.1400 0037796 150.4857 209.8499 14.78548456281951
SPOT 7                  
1 40053U 14034A   19253.44842145 -.00000052  00000-0 -12758-5 0  9993
2 40053  98.2206 319.2276 0001416  89.1209 271.0154 14.58536913276710
SKYSAT-2                
1 40072U 14037D   19253.48865011  .00000062  00000-0  15481-4 0  9992
2 40072  98.4378  51.6220 0005591 324.5236  35.5603 14.81204452279657
WORLDVIEW-3 (WV-3)      
1 40115U 14048A   19253.39360665 -.00000023  00000-0  34358-5 0  9990
2 40115  97.8073 330.4403 0001848 108.6579 251.4838 14.85027105275087
GAOFEN 2                
1 40118U 14049A   19253.46170465  .00000040  00000-0  11964-4 0  9994
2 40118  97.8665 331.6687 0008003  12.6060 347.5352 14.80641142273492
YAOGAN 21               
1 40143U 14053A   19253.48526715  .00000643  00000-0  29831-4 0  9993
2 40143  97.4776 316.9685 0017697 170.0621 246.2883 15.23539181278625
YAOGAN 22               
1 40275U 14063A   19253.53306454 -.00000045  00000-0  00000+0 0  9991
2 40275 100.4762   5.2215 0006002  23.6138 336.5248 13.15337268234836
ASNARO                  
1 40298U 14070A   19253.36620568  .00000608  00000-0  31798-4 0  9997
2 40298  97.4390 335.0477 0001551 102.2346 322.8782 15.19544918268652
HODOYOSHI-1             
1 40299U 14070B   19253.39008978  .00000571  00000-0  26841-4 0  9998
2 40299  97.3450 331.3938 0014504 105.7499 317.2105 15.23435167269017
QSAT-EOS                
1 40301U 14070D   19253.37055959  .00001502  00000-0  60435-4 0  9993
2 40301  97.3221 328.9014 0027316 102.0884 317.6858 15.26102021269053
YAOGAN 23               
1 40305U 14071A   19253.46977854  .00000425  00000-0  24244-4 0  9996
2 40305  97.4936 190.0705 0001901  58.0332  77.6069 15.17965893267101
YAOGAN 24               
1 40310U 14072A   19253.45365764  .00000045  00000-0  13753-4 0  9994
2 40310  97.8673  17.2657 0016343 316.2233  43.7680 14.76300119259078
CBERS 4                 
1 40336U 14079A   19253.46985689 -.00000029  00000-0  52591-5 0  9991
2 40336  98.5978 321.7612 0000848 124.6114 235.5151 14.35400989249375
RESURS P2               
1 40360U 14087A   19253.44161175  .00000550  00000-0  19498-4 0  9997
2 40360  97.2567 342.5875 0010988 107.8555 316.8697 15.33195830263258
YAOGAN 26               
1 40362U 14088A   19253.46699869  .00000618  00000-0  28581-4 0  9996
2 40362  97.2820 325.3305 0010638  48.3062  51.7542 15.23690028262085
SMAP                    
1 40376U 15003A   19253.43062155  .00000000  00000-0  91289-5 0  9999
2 40376  98.1240 259.1130 0001778 101.1122 259.0287 14.63382266246127
KOMPSAT-3A              
1 40536U 15014A   19253.12544490  .00001981  00000-0  11910-3 0  9992
2 40536  97.5551 190.5880 0010137  38.1453  86.7106 15.11995423246201
SENTINEL-2A             
1 40697U 15028A   19253.42427850  .00000003  00000-0  17776-4 0  9999
2 40697  98.5624 326.6765 0001088  97.3835 262.7471 14.30821928220279
GAOFEN 8                
1 40701U 15030A   19253.48705043  .00000817  00000-0  37151-4 0  9999
2 40701  97.4427  12.7293 0012108  57.2848  12.8054 15.23520167234468
CARBONITE 1 (CBNT-1)    
1 40718U 15032D   19253.43167957  .00000091  00000-0  20987-4 0  9993
2 40718  97.8726 137.7131 0017943  39.6238 320.6270 14.74720938224394
YAOGAN 27               
1 40878U 15040A   19253.46220258 -.00000043  00000-0  00000+0 0  9993
2 40878 100.2804 305.4264 0008956 145.5470 214.6225 13.15962854194057
GAOFEN 9                
1 40894U 15047A   19253.49059273  .00000044  00000-0  13750-4 0  9999
2 40894  97.9133 333.9262 0032498 233.4015 126.4205 14.76294468215022
LAPAN-A2                
1 40931U 15052B   19253.16999455  .00000714  00000-0  10228-4 0  9997
2 40931   5.9962 181.2998 0013794 258.3587 101.5453 14.76613971213628
YAOGAN 28               
1 41026U 15064A   19253.49774755  .00000584  00000-0  27372-4 0  9999
2 41026  97.4179  22.8039 0002419  56.7713   6.9263 15.23552367214317
YAOGAN 29               
1 41038U 15069A   19253.47196721  .00000035  00000-0  11420-4 0  9994
2 41038  97.9834 237.3707 0002300  78.5815 281.5661 14.80417097204709
KENT RIDGE 1            
1 41167U 15077B   19253.49077719  .00000811  00000-0  94909-5 0  9999
2 41167  14.9817   9.0146 0011339  88.7515 344.3958 15.09058925206279
TELEOS 1                
1 41169U 15077D   19253.49270853  .00001139  00000-0  28163-4 0  9997
2 41169  14.9800 357.7848 0010545 104.4342 339.5999 15.10295462206370
GAOFEN 4                
1 41194U 15083A   19252.97913170 -.00000357  00000-0  00000-0 0  9998
2 41194   0.0398 265.1501 0004985 306.3022 235.4748  1.00269563 13709
JASON-3                 
1 41240U 16002A   19253.12311886 -.00000050  00000-0  45960-4 0  9994
2 41240  66.0390 229.4861 0008320 268.1956  91.8106 12.80929745170526
SENTINEL-3A             
1 41335U 16011A   19253.48902634 -.00000012  00000-0  13093-4 0  9995
2 41335  98.6313 319.2486 0000946  95.0511 265.0778 14.26734470185615
SENTINEL-1B             
1 41456U 16025A   19253.46987119 -.00000013  00000-0  69258-5 0  9999
2 41456  98.1825 259.3029 0001229  82.8942 277.2402 14.59197832179754
ZIYUAN 3-2 (ZY 3-2)     
1 41556U 16033A   19253.46218965  .00000584  00000-0  29138-4 0  9999
2 41556  97.3924 329.2108 0000662 292.9521 163.4748 15.21343660182191
NUSAT-1 (FRESCO)        
1 41557U 16033B   19253.51435570  .00001009  00000-0  40354-4 0  9995
2 41557  97.4164 340.5270 0013879   8.9608 351.1876 15.27357194182887
NUSAT-2 (BATATA)        
1 41558U 16033C   19253.44434253  .00001041  00000-0  39284-4 0  9991
2 41558  97.4193 341.7765 0012944   9.7748 350.3741 15.29267236182935
CARTOSAT-2C             
1 41599U 16040A   19253.46301027  .00000354  00000-0  20051-4 0  9996
2 41599  97.4908 311.0826 0015442 107.3149 347.9083 15.19237914178438
SKYSAT-C1               
1 41601U 16040C   19253.48779115  .00000416  00000-0  20203-4 0  9997
2 41601  97.3884 330.9908 0002266 106.1141 309.6153 15.23736479178825
LAPAN-A3                
1 41603U 16040E   19253.46501058  .00000136  00000-0  94699-5 0  9996
2 41603  97.3526 310.0763 0014992 104.1166 351.3617 15.19739596178469
